OBJECT_NAME,OBJECT_ID,EPOCH,MEAN_MOTION,ECCENTRICITY,INCLINATION,RA_OF_ASC_NODE,ARG_OF_PERICENTER,MEAN_ANOMALY,EPHEMERIS_TYPE,CLASSIFICATION_TYPE,NORAD_CAT_ID,ELEMENT_SET_NO,REV_AT_EPOCH,BSTAR,MEAN_MOTION_DOT,MEAN_MOTION_DDOT
ONEWEB-0423,2022-012F,2026-07-15T00:19:08.059008,13.17648764,.0001773,87.9145,0.3278,90.1116,270.0219,0,U,51627,999,21736,.42695E-4,.29E-6,0
ONEWEB-0425,2022-012G,2026-07-15T01:19:31.175616,13.10375578,.0001719,87.8820,30.7129,80.2672,279.8649,0,U,51628,999,21297,.20918E-2,.743E-5,0
ONEWEB-0428,2022-012H,2026-07-15T02:40:06.732192,13.10376704,.0001801,87.8812,30.7085,88.0836,272.0497,0,U,51629,999,21294,-.15551E-2,-.53E-5,0
ONEWEB-0431,2022-012J,2026-07-15T01:55:56.381088,13.10370378,.0002364,87.8813,30.7075,96.6873,263.4524,0,U,51630,999,21299,.12342E-2,.443E-5,0
ONEWEB-0434,2022-012K,2026-07-15T01:24:36.624672,13.10376878,.0001573,87.8823,30.7381,67.7793,292.3501,0,U,51631,999,21297,.12177E-2,.438E-5,0
ONEWEB-0435,2022-012L,2026-07-15T01:34:10.604064,13.10377119,.0001873,87.8814,30.7205,97.9016,262.2324,0,U,51632,999,21296,.17342E-2,.618E-5,0
ONEWEB-0436,2022-012M,2026-07-15T00:06:58.696128,13.17647488,.0001914,87.9154,0.3130,99.5368,260.5980,0,U,51633,999,21734,-.11659E-4,.8E-7,0
ONEWEB-0438,2022-012N,2026-07-15T01:12:09.148032,13.10378701,.0001836,87.8817,30.7279,79.6463,280.4871,0,U,51634,999,21299,-.13828E-3,-.36E-6,0
ONEWEB-0439,2022-012P,2026-07-15T01:17:03.549120,13.10377779,.0001769,87.8818,30.7145,86.1338,273.9992,0,U,51635,999,21297,.57219E-3,.212E-5,0
ONEWEB-0442,2022-012Q,2026-07-14T23:56:03.645024,13.17650851,.0001738,87.9145,0.3449,74.5300,285.6023,0,U,51636,999,21733,-.6399E-4,-.12E-6,0
ONEWEB-0443,2022-012R,2026-07-15T00:23:59.087040,13.17647904,.0001509,87.9145,0.3421,95.5318,264.5986,0,U,51637,999,21738,.98027E-4,.51E-6,0
ONEWEB-0444,2022-012S,2026-07-15T01:02:22.377120,13.10378256,.0001647,87.8821,30.7153,89.0592,271.0724,0,U,51638,999,21298,-.8427E-3,-.282E-5,0
ONEWEB-0445,2022-012T,2026-07-15T01:31:42.980160,13.10377967,.0001943,87.8824,30.7013,85.5088,274.6262,0,U,51639,999,21299,.16537E-2,.59E-5,0
ONEWEB-0446,2022-012U,2026-07-15T00:59:55.213728,13.10374892,.000214,87.8818,30.7325,83.0010,277.1360,0,U,51640,999,21297,-.12715E-2,-.431E-5,0
ONEWEB-0448,2022-012V,2026-07-15T01:07:15.774240,13.10378993,.000179,87.8816,30.7275,87.3123,272.8209,0,U,51641,999,21294,-.41741E-3,-.133E-5,0
ONEWEB-0449,2022-012W,2026-07-15T01:14:35.960640,13.10376612,.0001887,87.8822,30.7134,68.0384,292.0944,0,U,51642,999,21295,.17317E-3,.73E-6,0
ONEWEB-0451,2022-012X,2026-07-15T00:02:06.913824,13.17651032,.0001704,87.9158,0.3121,87.3080,272.8247,0,U,51643,999,21732,.12715E-5,.13E-6,0
ONEWEB-0452,2022-012Y,2026-07-14T23:59:41.303040,13.17647967,.0001563,87.9146,0.3465,90.8947,269.2364,0,U,51644,999,21733,.44607E-4,.3E-6,0
ONEWEB-0456,2022-012AA,2026-07-15T01:26:48.618816,13.10374576,.0001779,87.8831,30.7007,91.7903,268.3428,0,U,51646,999,21299,.14343E-2,.513E-5,0
ONEWEB-0457,2022-012AB,2026-07-15T00:54:50.414400,13.10377220,.0002088,87.8817,30.7207,79.9336,280.2027,0,U,51647,999,21299,-.18831E-2,-.645E-5,0
ONEWEB-0458,2022-012AC,2026-07-15T01:25:36.587136,13.10375461,.0001636,87.8821,30.7049,86.0650,274.0664,0,U,51648,999,21295,.12485E-2,.449E-5,0
ONEWEB-0461,2022-012AD,2026-07-15T02:20:37.857696,13.17650335,.0001941,87.9154,0.3066,89.8823,270.2531,0,U,51649,999,21756,.39696E-4,.28E-6,0
ONEWEB-0463,2022-012AE,2026-07-15T00:04:33.138912,13.17650597,.0001984,87.9146,0.3451,89.8063,270.3295,0,U,51650,999,21733,-.58997E-4,-.1E-6,0
ONEWEB-0464,2022-012AF,2026-07-15T01:21:56.905632,13.10375362,.000159,87.8816,30.7265,93.7914,266.3395,0,U,51651,999,21297,.11302E-2,.407E-5,0
ONEWEB-0468,2022-012AG,2026-07-15T01:29:15.553248,13.10374058,.0001687,87.8812,30.7185,94.4504,265.6816,0,U,51652,999,21295,.15356E-2,.549E-5,0
ONEWEB-0473,2022-012AH,2026-07-15T01:09:43.705728,13.10377234,.0001868,87.8817,30.7235,90.0985,270.0356,0,U,51653,999,21295,-.16183E-3,-.44E-6,0
ONEWEB-0474,2022-012AJ,2026-07-15T00:57:29.181312,13.10376844,.0001564,87.8824,30.7120,93.6252,266.5054,0,U,51654,999,21294,-.12929E-2,-.439E-5,0
ONEWEB-0475,2022-012AK,2026-07-14T22:32:13.335072,13.17648669,.0001422,87.9146,0.3515,111.1096,249.0188,0,U,51655,999,21734,-.72344E-4,-.15E-6,0
ONEWEB-0490,2022-138A,2026-07-14T17:33:55.670976,13.19726436,.00020553,87.9192,299.4836,106.3537,253.7822,0,U,54113,999,18046,-.14007563E-3,-.43E-6,0
ONEWEB-0492,2022-138B,2026-07-14T19:59:28.576032,13.19725166,.00022275,87.9184,299.4629,104.3088,255.8292,0,U,54114,999,18048,-.55301044E-3,-.208E-5,0
ONEWEB-0495,2022-138C,2026-07-14T19:27:39.334752,13.19724230,.00022024,87.9186,299.4699,118.6906,241.4449,0,U,54115,999,18046,.90037689E-3,.373E-5,0
