ONEWEB-0423             
1 51627U 22012F   26196.01328772  .00000029  00000+0  42695-4 0  9992
2 51627  87.9145   0.3278 0001773  90.1116 270.0219 13.17648764217360
ONEWEB-0425             
1 51628U 22012G   26196.05522194  .00000743  00000+0  20918-2 0  9996
2 51628  87.8820  30.7129 0001719  80.2672 279.8649 13.10375578212978
ONEWEB-0428             
1 51629U 22012H   26196.11118903 -.00000530  00000+0 -15551-2 0  9996
2 51629  87.8812  30.7085 0001801  88.0836 272.0497 13.10376704212946
ONEWEB-0431             
1 51630U 22012J   26196.08051367  .00000443  00000+0  12342-2 0  9990
2 51630  87.8813  30.7075 0002364  96.6873 263.4524 13.10370378212990
ONEWEB-0434             
1 51631U 22012K   26196.05875723  .00000438  00000+0  12177-2 0  9998
2 51631  87.8823  30.7381 0001573  67.7793 292.3501 13.10376878212978
ONEWEB-0435             
1 51632U 22012L   26196.06540051  .00000618  00000+0  17342-2 0  9992
2 51632  87.8814  30.7205 0001873  97.9016 262.2324 13.10377119212967
ONEWEB-0436             
1 51633U 22012M   26196.00484602  .00000008  00000+0 -11659-4 0  9997
2 51633  87.9154   0.3130 0001914  99.5368 260.5980 13.17647488217342
ONEWEB-0438             
1 51634U 22012N   26196.05010588 -.00000036  00000+0 -13828-3 0  9992
2 51634  87.8817  30.7279 0001836  79.6463 280.4871 13.10378701212995
ONEWEB-0439             
1 51635U 22012P   26196.05351330  .00000212  00000+0  57219-3 0  9992
2 51635  87.8818  30.7145 0001769  86.1338 273.9992 13.10377779212971
ONEWEB-0442             
1 51636U 22012Q   26195.99726441 -.00000012  00000+0 -63990-4 0  9998
2 51636  87.9145   0.3449 0001738  74.5300 285.6023 13.17650851217334
ONEWEB-0443             
1 51637U 22012R   26196.01665610  .00000051  00000+0  98027-4 0  9993
2 51637  87.9145   0.3421 0001509  95.5318 264.5986 13.17647904217387
ONEWEB-0444             
1 51638U 22012S   26196.04331455 -.00000282  00000+0 -84270-3 0  9996
2 51638  87.8821  30.7153 0001647  89.0592 271.0724 13.10378256212980
ONEWEB-0445             
1 51639U 22012T   26196.06369190  .00000590  00000+0  16537-2 0  9996
2 51639  87.8824  30.7013 0001943  85.5088 274.6262 13.10377967212994
ONEWEB-0446             
1 51640U 22012U   26196.04161127 -.00000431  00000+0 -12715-2 0  9996
2 51640  87.8818  30.7325 0002140  83.0010 277.1360 13.10374892212972
ONEWEB-0448             
1 51641U 22012V   26196.04671035 -.00000133  00000+0 -41741-3 0  9992
2 51641  87.8816  30.7275 0001790  87.3123 272.8209 13.10378993212944
ONEWEB-0449             
1 51642U 22012W   26196.05180510  .00000073  00000+0  17317-3 0  9990
2 51642  87.8822  30.7134 0001887  68.0384 292.0944 13.10376612212955
ONEWEB-0451             
1 51643U 22012X   26196.00146891  .00000013  00000+0  12715-5 0  9993
2 51643  87.9158   0.3121 0001704  87.3080 272.8247 13.17651032217320
ONEWEB-0452             
1 51644U 22012Y   26195.99978360  .00000030  00000+0  44607-4 0  9998
2 51644  87.9146   0.3465 0001563  90.8947 269.2364 13.17647967217336
ONEWEB-0456             
1 51646U 22012AA  26196.06028494  .00000513  00000+0  14343-2 0  9991
2 51646  87.8831  30.7007 0001779  91.7903 268.3428 13.10374576212992
ONEWEB-0457             
1 51647U 22012AB  26196.03808350 -.00000645  00000+0 -18831-2 0  9990
2 51647  87.8817  30.7207 0002088  79.9336 280.2027 13.10377220212998
ONEWEB-0458             
1 51648U 22012AC  26196.05945124  .00000449  00000+0  12485-2 0  9993
2 51648  87.8821  30.7049 0001636  86.0650 274.0664 13.10375461212953
ONEWEB-0461             
1 51649U 22012AD  26196.09766039  .00000028  00000+0  39696-4 0  9992
2 51649  87.9154   0.3066 0001941  89.8823 270.2531 13.17650335217564
ONEWEB-0463             
1 51650U 22012AE  26196.00316133 -.00000010  00000+0 -58997-4 0  9999
2 51650  87.9146   0.3451 0001984  89.8063 270.3295 13.17650597217331
ONEWEB-0464             
1 51651U 22012AF  26196.05690863  .00000407  00000+0  11302-2 0  9995
2 51651  87.8816  30.7265 0001590  93.7914 266.3395 13.10375362212975
ONEWEB-0468             
1 51652U 22012AG  26196.06198557  .00000549  00000+0  15356-2 0  9990
2 51652  87.8812  30.7185 0001687  94.4504 265.6816 13.10374058212952
ONEWEB-0473             
1 51653U 22012AH  26196.04842252 -.00000044  00000+0 -16183-3 0  9999
2 51653  87.8817  30.7235 0001868  90.0985 270.0356 13.10377234212958
ONEWEB-0474             
1 51654U 22012AJ  26196.03992108 -.00000439  00000+0 -12929-2 0  9996
2 51654  87.8824  30.7120 0001564  93.6252 266.5054 13.10376844212949
ONEWEB-0475             
1 51655U 22012AK  26195.93904323 -.00000015  00000+0 -72344-4 0  9996
2 51655  87.9146   0.3515 0001422 111.1096 249.0188 13.17648669217341
ONEWEB-0490             
1 54113U 22138A   26195.73189434 -.00000043  00000+0 -14008-3 0  9996
2 54113  87.9192 299.4836 0002055 106.3537 253.7822 13.19726436180460
ONEWEB-0492             
1 54114U 22138B   26195.83296963 -.00000208  00000+0 -55301-3 0  9998
2 54114  87.9184 299.4629 0002227 104.3088 255.8292 13.19725166180487
ONEWEB-0495             
1 54115U 22138C   26195.81087193  .00000373  00000+0  90038-3 0  9997
2 54115  87.9186 299.4699 0002202 118.6906 241.4449 13.19724230180461
